ONEWEB-0128             
1 47274U 20100S   25050.60215322  .00002268  00000+0  62654-2 0  9992
2 47274  87.8821  86.7651 0002111  95.3827 264.7542 13.12462565201448
ONEWEB-0129             
1 47275U 20100T   25050.58109654 -.00000464  00000+0 -13262-2 0  9999
2 47275  87.8816  86.7213 0002522  66.6626 293.4767 13.12441605201373
ONEWEB-0130             
1 47276U 20100U   25050.60865835  .00000136  00000+0  34292-3 0  9994
2 47276  87.8815  86.7196 0002038  95.1957 264.9404 13.12440281201346
ONEWEB-0131             
1 47277U 20100V   25050.60542850  .00000045  00000+0  90934-4 0  9999
2 47277  87.8819  86.7423 0002012  97.5393 262.5964 13.12442056201387
ONEWEB-0132             
1 47278U 20100W   25050.55839285  .00000182  00000+0  47185-3 0  9996
2 47278  87.8818  86.7533 0001864 102.6025 257.5312 13.12440577201278
ONEWEB-0133             
1 47279U 20100X   25050.57460772 -.00000297  00000+0 -86026-3 0  9996
2 47279  87.8811  86.7347 0002001  97.5114 262.6242 13.12441626201433
ONEWEB-0134             
1 47280U 20100Y   25050.62003269  .00000366  00000+0  98074-3 0  9999
2 47280  87.8811  86.7108 0002195  93.1500 266.9880 13.12440659201413
ONEWEB-0135             
1 47281U 20100Z   25050.59082717 -.00000375  00000+0 -10775-2 0  9994
2 47281  87.8816  86.7468 0002406  97.4353 262.7049 13.12442870201436
